     2.100          NAVIGATION                              RINEX VERSION / TYPE
fic2rin                                 07/29/2017 00:20:15 PGM / RUN BY / DATE
                                                            END OF HEADER
17 17  7 29  0  0  0.0 -.166769139469D-03  .227373675443D-11  .000000000000D+00
     .660000000000D+02  .339375000000D+02  .409588489576D-08  .503688318149D+00
     .159256160259D-05  .117002369370D-01  .763870775700D-05  .515366397095D+04
     .518400000000D+06 -.219792127609D-06  .175721678370D+01 -.130385160446D-07
     .980285207488D+00  .242718750000D+03 -.184712756501D+01 -.810140888477D-08
     .265725354242D-09  .100000000000D+01  .195900000000D+04  .000000000000D+00
     .240000000000D+01  .000000000000D+00 -.111758708954D-07  .660000000000D+02
     .511206000000D+06  .400000000000D+01
18 17  7 29  0  0  0.0  .625292770565D-03  .125055521494D-11  .000000000000D+00
     .560000000000D+02 -.654687500000D+02  .536808074497D-08  .195826668180D+01
    -.364519655704D-05  .181400671136D-01  .902824103832D-05  .515362197495D+04
     .518400000000D+06  .135973095894D-06 -.252675665911D+01 -.439584255219D-06
     .925999535986D+00  .186093750000D+03 -.178941648692D+01 -.827891627867D-08
    -.195722438339D-09  .100000000000D+01  .195900000000D+04  .000000000000D+00
     .240000000000D+01  .000000000000D+00 -.111758708954D-07  .560000000000D+02
     .511206000000D+06  .400000000000D+01
21 17  7 29  0  0  0.0 -.491181388497D-03  .261479726760D-11  .000000000000D+00
     .650000000000D+02 -.216562500000D+02  .522950354410D-08  .286217537652D+01
    -.130012631416D-05  .239482206525D-01  .434182584286D-05  .515363586044D+04
     .518400000000D+06  .325962901115D-06  .271662112947D+01 -.204890966415D-06
     .940637406512D+00  .283125000000D+03 -.165413267964D+01 -.816498296146D-08
     .907180644858D-10  .100000000000D+01  .195900000000D+04  .000000000000D+00
     .240000000000D+01  .000000000000D+00 -.977888703346D-08  .650000000000D+02
     .511206000000D+06  .400000000000D+01
22 17  7 29  0  0  0.0 -.699074007571D-04 -.125055521494D-10  .000000000000D+00
     .500000000000D+02 -.556250000000D+02  .556344602557D-08 -.101417382475D+00
    -.282004475594D-05  .742461648770D-02  .879913568497D-05  .515376965523D+04
     .518400000000D+06 -.949949026108D-07 -.252700970883D+01 -.167638063431D-07
     .924063908114D+00  .191343750000D+03 -.169492786190D+01 -.865893210785D-08
    -.122505102829D-09  .100000000000D+01  .195900000000D+04  .000000000000D+00
     .240000000000D+01  .000000000000D+00 -.176951289177D-07  .500000000000D+02
     .511206000000D+06  .400000000000D+01
23 17  7 29  0  0  0.0 -.215637031943D-03 -.454747350886D-12  .000000000000D+00
     .960000000000D+02  .434687500000D+02  .494734893408D-08 -.865014027375D+00
     .225007534027D-05  .118731698021D-01  .840984284878D-05  .515371152496D+04
     .518400000000D+06  .180676579475D-06 -.144155255132D+01  .173225998878D-06
     .943838116200D+00  .207625000000D+03 -.243453495000D+01 -.830356016232D-08
     .496449250533D-10  .100000000000D+01  .195900000000D+04  .000000000000D+00
     .240000000000D+01  .000000000000D+00 -.204890966415D-07  .960000000000D+02
     .511206000000D+06  .400000000000D+01
24 17  7 29  0  0  0.0 -.381809659302D-04 -.568434188608D-12  .000000000000D+00
     .190000000000D+02  .199687500000D+02  .506271088223D-08 -.141667129183D+01
     .108033418655D-05  .574619334657D-02  .507570803165D-05  .515367868805D+04
     .518400000000D+06  .800937414169D-07 -.418662861069D+00 -.165775418282D-06
     .944757895221D+00  .275437500000D+03  .474866906787D+00 -.841356474446D-08
    -.165721188667D-09  .100000000000D+01  .195900000000D+04  .000000000000D+00
     .240000000000D+01  .000000000000D+00  .279396772385D-08  .190000000000D+02
     .511206000000D+06  .400000000000D+01
25 17  7 29  0  0  0.0 -.429655425251D-03 -.648014975013D-11  .000000000000D+00
     .210000000000D+02 -.265000000000D+02  .390444835023D-08  .293249031603D+01
    -.135041773319D-05  .648759573232D-02  .879727303982D-05  .515355987930D+04
     .518400000000D+06  .763684511185D-07  .665054804922D+00 -.372529029846D-07
     .976926157399D+00  .216343750000D+03  .830989935118D+00 -.776389482595D-08
    -.217151902391D-09  .100000000000D+01  .195900000000D+04  .000000000000D+00
     .240000000000D+01  .000000000000D+00  .558793544769D-08  .210000000000D+02
     .511206000000D+06  .400000000000D+01
26 17  7 29  0  0  0.0 -.464466400445D-03  .807176547823D-11  .000000000000D+00
     .140000000000D+02 -.267812500000D+02  .440018328530D-08  .228841149762D+01
    -.140629708767D-05  .180744531099D-02  .814348459244D-05  .515374321556D+04
     .518400000000D+06  .167638063431D-07  .648543511263D+00 -.800937414169D-07
     .958660805945D+00  .222000000000D+03  .692729497707D-01 -.806783605776D-08
    -.263939565571D-09  .100000000000D+01  .195900000000D+04  .000000000000D+00
     .240000000000D+01  .000000000000D+00  .745058059692D-08  .140000000000D+02
     .511206000000D+06  .400000000000D+01
27 17  7 29  0  0  0.0  .301521271467D-03  .625277607469D-11  .000000000000D+00
     .130000000000D+02  .192812500000D+02  .415410160643D-08  .518180337205D+00
     .103935599327D-05  .489400210790D-02  .806525349617D-05  .515366780853D+04
     .518400000000D+06  .596046447754D-07  .170485977512D+01  .838190317154D-07
     .975156070410D+00  .234218750000D+03  .393445447874D+00 -.796247452617D-08
     .306798493674D-09  .100000000000D+01  .195900000000D+04  .000000000000D+00
     .240000000000D+01  .000000000000D+00  .139698386192D-08  .130000000000D+02
     .511206000000D+06  .400000000000D+01
28 17  7 29  0  0  0.0  .632791314274D-03  .306954461848D-11  .000000000000D+00
     .350000000000D+02 -.148125000000D+02  .368693929011D-08  .140216966433D+01
    -.103935599327D-05  .197142802645D-01  .902451574802D-05  .515365761948D+04
     .518400000000D+06 -.931322574615D-07  .744459970660D+00 -.476837158203D-06
     .988295160883D+00  .220843750000D+03 -.156692912626D+01 -.779496754883D-08
    -.131791203918D-09  .100000000000D+01  .195900000000D+04  .000000000000D+00
     .485000000000D+01  .000000000000D+00 -.111758708954D-07  .350000000000D+02
     .511206000000D+06  .400000000000D+01
29 17  7 29  0  0  0.0  .580605119467D-03 -.409272615798D-11  .000000000000D+00
     .410000000000D+02  .308125000000D+02  .397409410840D-08  .191652985576D+01
     .160001218319D-05  .614373013377D-03  .832974910736D-05  .515359436417D+04
     .518400000000D+06  .204890966415D-07  .176743084409D+01  .260770320892D-07
     .981429420086D+00  .226062500000D+03  .723453514491D+00 -.788925719066D-08
     .398945189097D-09  .100000000000D+01  .195900000000D+04  .000000000000D+00
     .240000000000D+01  .000000000000D+00 -.977888703346D-08  .410000000000D+02
     .511206000000D+06  .400000000000D+01
30 17  7 29  0  0  0.0  .148335937411D-03 -.170530256582D-11  .000000000000D+00
     .320000000000D+02  .968750000000D+01  .499806533234D-08 -.232530513294D+01
     .454485416412D-06  .301279546693D-02  .501051545143D-05  .515364746857D+04
     .518400000000D+06 -.149011611938D-07 -.326148932612D+00 -.298023223877D-07
     .947481839907D+00  .275906250000D+03 -.310557170741D+01 -.839677833095D-08
    -.193222334200D-09  .100000000000D+01  .195900000000D+04  .000000000000D+00
     .240000000000D+01  .000000000000D+00  .372529029846D-08  .320000000000D+02
     .511206000000D+06  .400000000000D+01
31 17  7 29  0  0  0.0  .185451935977D-03 -.238742359215D-11  .000000000000D+00
     .830000000000D+02  .214375000000D+02  .461626371448D-08 -.250203604412D+01
     .105798244476D-05  .844346161466D-02  .529922544956D-05  .515374299431D+04
     .518400000000D+06 -.167638063431D-06 -.352954641818D+00  .409781932831D-07
     .966489936814D+00  .282250000000D+03 -.250830239812D+00 -.817569769348D-08
    -.162149611325D-09  .100000000000D+01  .195900000000D+04  .000000000000D+00
     .240000000000D+01  .000000000000D+00 -.135041773319D-07  .830000000000D+02
     .511206000000D+06  .400000000000D+01
32 17  7 29  0  0  0.0 -.472438056022D-03 -.761701812735D-11  .000000000000D+00
     .850000000000D+02  .433437500000D+02  .465733685392D-08  .109972888451D+01
     .234879553318D-05  .138840067666D-02  .973232090473D-05  .515375026703D+04
     .518400000000D+06  .502914190292D-07 -.143928658045D+01  .372529029846D-07
     .957450454820D+00  .190156250000D+03 -.252523676915D+01 -.811926677148D-08
     .946467995620D-10  .100000000000D+01  .195900000000D+04  .000000000000D+00
     .340000000000D+01  .000000000000D+00  .465661287308D-09  .850000000000D+02
     .511206000000D+06  .400000000000D+01
32 17  7 28 23 59 44.0 -.472438987345D-03 -.761701812735D-11  .000000000000D+00
     .600000000000D+01  .433437500000D+02  .465697969618D-08  .109739587835D+01
     .234879553318D-05  .138839811552D-02  .973232090473D-05  .515375027275D+04
     .518384000000D+06  .521540641785D-07 -.143928644733D+01  .391155481339D-07
     .957450448969D+00  .190156250000D+03 -.252523745965D+01 -.811926677148D-08
     .946467995620D-10  .100000000000D+01  .195900000000D+04  .000000000000D+00
     .240000000000D+01  .000000000000D+00  .465661287308D-09  .600000000000D+01
     .511536000000D+06  .400000000000D+01
